{"type": "FeatureCollection", "features": [ {"type": "Feature", "properties": {"norad_id": 66819, "name": "STARLINK-35989", "group": "last-30-days", "lat": 3.0341731529856575, "lon": -1.392456305878087, "alt_km": 414.5850354535469, "timestamp": "2025-12-24T09:46:29.715872+00:00", "meta": {"OBJECT_NAME": "STARLINK-35989", "OBJECT_ID": "2025-278AE", "EPOCH": "2025-12-24T04:00:01.998720", "MEAN_MOTION": 15.50537691, "ECCENTRICITY": 0.0001477, "INCLINATION": 43.0001, "RA_OF_ASC_NODE": 183.276, "ARG_OF_PERICENTER": 269.9603, "MEAN_ANOMALY": 0.8965, "EPHEMERIS_TYPE": 0, "CLASSIFICATION_TYPE": "U", "NORAD_CAT_ID": 66819, "ELEMENT_SET_NO": 999, "REV_AT_EPOCH": 479, "BSTAR": 0.00052216, "MEAN_MOTION_DOT": 0.00030365, "MEAN_MOTION_DDOT": 0}, "tle": {"line1": "1 66819U 25278AE  25358.16668980  .00030365  00000+0  52216-3 0  9996", "line2": "2 66819  43.0001 183.2760 0001477 269.9603   0.8965 15.50537691  4791"}}, "geometry": {"type": "Point", "coordinates": [-1.392456305878087, 3.0341731529856575]}}, {"type": "Feature", "properties": {"norad_id": 66820, "name": "KOMPSAT-7", "group": "last-30-days", "lat": -35.241394465827895, "lon": -50.482923118295794, "alt_km": 572.5356269725344, "timestamp": "2025-12-24T09:46:29.715885+00:00", "meta": {"OBJECT_NAME": "KOMPSAT-7", "OBJECT_ID": "2025-279A", "EPOCH": "2025-12-23T22:43:53.065344", "MEAN_MOTION": 15.00665333, "ECCENTRICITY": 0.00111761, "INCLINATION": 97.6456, "RA_OF_ASC_NODE": 303.6187, "ARG_OF_PERICENTER": 225.7448, "MEAN_ANOMALY": 134.286, "EPHEMERIS_TYPE": 0, "CLASSIFICATION_TYPE": "U", "NORAD_CAT_ID": 66820, "ELEMENT_SET_NO": 999, "REV_AT_EPOCH": 333, "BSTAR": 0.00024589623, "MEAN_MOTION_DOT": 3.055e-05, "MEAN_MOTION_DDOT": 0}, "tle": {"line1": "1 66820U 25279A   25357.94714196  .00003055  00000+0  24590-3 0  9995", "line2": "2 66820  97.6456 303.6187 0011176 225.7448 134.2860 15.00665333  3332"}}, "geometry": {"type": "Point", "coordinates": [-50.482923118295794, -35.241394465827895]}}, {"type": "Feature", "properties": {"norad_id": 66821, "name": "STARLINK-35966", "group": "last-30-days", "lat": 36.11506510047398, "lon": -178.12967886083734, "alt_km": 407.5375973519658, "timestamp": "2025-12-24T09:46:29.715896+00:00", "meta": {"OBJECT_NAME": "STARLINK-35966", "OBJECT_ID": "2025-280A", "EPOCH": "2025-12-24T01:52:35.973696", "MEAN_MOTION": 15.52543665, "ECCENTRICITY": 0.0003414, "INCLINATION": 70.0007, "RA_OF_ASC_NODE": 167.3605, "ARG_OF_PERICENTER": 273.5983, "MEAN_ANOMALY": 86.4814, "EPHEMERIS_TYPE": 0, "CLASSIFICATION_TYPE": "U", "NORAD_CAT_ID": 66821, "ELEMENT_SET_NO": 999, "REV_AT_EPOCH": 469, "BSTAR": 0.00061889, "MEAN_MOTION_DOT": 0.00038125, "MEAN_MOTION_DDOT": 0}, "tle": {"line1": "1 66821U 25280A   25358.07819414  .00038125  00000+0  61889-3 0  9990", "line2": "2 66821  70.0007 167.3605 0003414 273.5983  86.4814 15.52543665  4698"}}, "geometry": {"type": "Point", "coordinates": [-178.12967886083734, 36.11506510047398]}}, {"type": "Feature", "properties": {"norad_id": 66822, "name": "STARLINK-35958", "group": "last-30-days", "lat": 37.883823142764214, "lon": -177.08019373809333, "alt_km": 407.19426235104856, "timestamp": "2025-12-24T09:46:29.715906+00:00", "meta": {"OBJECT_NAME": "STARLINK-35958", "OBJECT_ID": "2025-280B", "EPOCH": "2025-12-24T01:52:06.335040", "MEAN_MOTION": 15.525603, "ECCENTRICITY": 0.0003484, "INCLINATION": 70.0003, "RA_OF_ASC_NODE": 167.36, "ARG_OF_PERICENTER": 274.0507, "MEAN_ANOMALY": 86.0281, "EPHEMERIS_TYPE": 0, "CLASSIFICATION_TYPE": "U", "NORAD_CAT_ID": 66822, "ELEMENT_SET_NO": 999, "REV_AT_EPOCH": 469, "BSTAR": 0.0014249, "MEAN_MOTION_DOT": 0.00088611, "MEAN_MOTION_DDOT": 0}, "tle": {"line1": "1 66822U 25280B   25358.07785110  .00088611  00000+0  14249-2 0  9998", "line2": "2 66822  70.0003 167.3600 0003484 274.0507  86.0281 15.52560300  4694"}}, "geometry": {"type": "Point", "coordinates": [-177.08019373809333, 37.883823142764214]}}, {"type": "Feature", "properties": {"norad_id": 66823, "name": "STARLINK-35957", "group": "last-30-days", "lat": 39.58638416946343, "lon": -176.01719491204366, "alt_km": 406.9912145247863, "timestamp": "2025-12-24T09:46:29.715916+00:00", "meta": {"OBJECT_NAME": "STARLINK-35957", "OBJECT_ID": "2025-280C", "EPOCH": "2025-12-24T01:51:36.819936", "MEAN_MOTION": 15.5254954, "ECCENTRICITY": 0.0003455, "INCLINATION": 70.0003, "RA_OF_ASC_NODE": 167.358, "ARG_OF_PERICENTER": 275.1141, "MEAN_ANOMALY": 84.9651, "EPHEMERIS_TYPE": 0, "CLASSIFICATION_TYPE": "U", "NORAD_CAT_ID": 66823, "ELEMENT_SET_NO": 999, "REV_AT_EPOCH": 469, "BSTAR": 0.001268, "MEAN_MOTION_DOT": 0.00078704, "MEAN_MOTION_DDOT": 0}, "tle": {"line1": "1 66823U 25280C   25358.07750949  .00078704  00000+0  12680-2 0  9990", "line2": "2 66823  70.0003 167.3580 0003455 275.1141  84.9651 15.52549540  4697"}}, "geometry": {"type": "Point", "coordinates": [-176.01719491204366, 39.58638416946343]}}, {"type": "Feature", "properties": {"norad_id": 66824, "name": "STARLINK-35896", "group": "last-30-days", "lat": 41.280892030013874, "lon": -174.89807104729246, "alt_km": 406.96838533743994, "timestamp": "2025-12-24T09:46:29.715928+00:00", "meta": {"OBJECT_NAME": "STARLINK-35896", "OBJECT_ID": "2025-280D", "EPOCH": "2025-12-24T01:51:07.221024", "MEAN_MOTION": 15.52539112, "ECCENTRICITY": 0.0003441, "INCLINATION": 70.0004, "RA_OF_ASC_NODE": 167.3572, "ARG_OF_PERICENTER": 270.6548, "MEAN_ANOMALY": 89.4245, "EPHEMERIS_TYPE": 0, "CLASSIFICATION_TYPE": "U", "NORAD_CAT_ID": 66824, "ELEMENT_SET_NO": 999, "REV_AT_EPOCH": 469, "BSTAR": 0.0010807, "MEAN_MOTION_DOT": 0.00066928, "MEAN_MOTION_DDOT": 0}, "tle": {"line1": "1 66824U 25280D   25358.07716691  .00066928  00000+0  10807-2 0  9991", "line2": "2 66824  70.0004 167.3572 0003441 270.6548  89.4245 15.52539112  4699"}}, "geometry": {"type": "Point", "coordinates": [-174.89807104729246, 41.280892030013874]}}, {"type": "Feature", "properties": {"norad_id": 66825, "name": "STARLINK-35476", "group": "last-30-days", "lat": 42.97884609327503, "lon": -173.7094278317862, "alt_km": 406.70131377050166, "timestamp": "2025-12-24T09:46:29.715938+00:00", "meta": {"OBJECT_NAME": "STARLINK-35476", "OBJECT_ID": "2025-280E", "EPOCH": "2025-12-24T01:50:37.654080", "MEAN_MOTION": 15.52536897, "ECCENTRICITY": 0.000361, "INCLINATION": 70.0004, "RA_OF_ASC_NODE": 167.3555, "ARG_OF_PERICENTER": 275.4846, "MEAN_ANOMALY": 84.5929, "EPHEMERIS_TYPE": 0, "CLASSIFICATION_TYPE": "U", "NORAD_CAT_ID": 66825, "ELEMENT_SET_NO": 999, "REV_AT_EPOCH": 469, "BSTAR": 0.0011075, "MEAN_MOTION_DOT": 0.00068606, "MEAN_MOTION_DDOT": 0}, "tle": {"line1": "1 66825U 25280E   25358.07682470  .00068606  00000+0  11075-2 0  9992", "line2": "2 66825  70.0004 167.3555 0003610 275.4846  84.5929 15.52536897  4695"}}, "geometry": {"type": "Point", "coordinates": [-173.7094278317862, 42.97884609327503]}}, {"type": "Feature", "properties": {"norad_id": 66826, "name": "STARLINK-35898", "group": "last-30-days", "lat": 44.68103911938047, "lon": -172.44035608536814, "alt_km": 406.4239480442775, "timestamp": "2025-12-24T09:46:29.715948+00:00", "meta": {"OBJECT_NAME": "STARLINK-35898", "OBJECT_ID": "2025-280F", "EPOCH": "2025-12-24T01:50:07.851264", "MEAN_MOTION": 15.52544195, "ECCENTRICITY": 0.0003374, "INCLINATION": 70.0005, "RA_OF_ASC_NODE": 167.3536, "ARG_OF_PERICENTER": 274.4872, "MEAN_ANOMALY": 85.5929, "EPHEMERIS_TYPE": 0, "CLASSIFICATION_TYPE": "U", "NORAD_CAT_ID": 66826, "ELEMENT_SET_NO": 999, "REV_AT_EPOCH": 469, "BSTAR": 0.00092077, "MEAN_MOTION_DOT": 0.00056938, "MEAN_MOTION_DDOT": 0}, "tle": {"line1": "1 66826U 25280F   25358.07647976  .00056938  00000+0  92077-3 0  9992", "line2": "2 66826  70.0005 167.3536 0003374 274.4872  85.5929 15.52544195  4692"}}, "geometry": {"type": "Point", "coordinates": [-172.44035608536814, 44.68103911938047]}}, {"type": "Feature", "properties": {"norad_id": 66827, "name": "STARLINK-35959", "group": "last-30-days", "lat": 46.33998489694531, "lon": -171.11707435732197, "alt_km": 406.02133662512824, "timestamp": "2025-12-24T09:46:29.715958+00:00", "meta": {"OBJECT_NAME": "STARLINK-35959", "OBJECT_ID": "2025-280G", "EPOCH": "2025-12-24T01:49:38.538336", "MEAN_MOTION": 15.52538273, "ECCENTRICITY": 0.0003167, "INCLINATION": 70.0005, "RA_OF_ASC_NODE": 167.3525, "ARG_OF_PERICENTER": 277.8048, "MEAN_ANOMALY": 82.2779, "EPHEMERIS_TYPE": 0, "CLASSIFICATION_TYPE": "U", "NORAD_CAT_ID": 66827, "ELEMENT_SET_NO": 999, "REV_AT_EPOCH": 469, "BSTAR": 0.0012511, "MEAN_MOTION_DOT": 0.00077612, "MEAN_MOTION_DDOT": 0}, "tle": {"line1": "1 66827U 25280G   25358.07614049  .00077612  00000+0  12511-2 0  9994", "line2": "2 66827  70.0005 167.3525 0003167 277.8048  82.2779 15.52538273  4690"}}, "geometry": {"type": "Point", "coordinates": [-171.11707435732197, 46.33998489694531]}}, {"type": "Feature", "properties": {"norad_id": 66828, "name": "STARLINK-35982", "group": "last-30-days", "lat": 49.65395771233918, "lon": -168.16870270471847, "alt_km": 405.7877935577735, "timestamp": "2025-12-24T09:46:29.715970+00:00", "meta": {"OBJECT_NAME": "STARLINK-35982", "OBJECT_ID": "2025-280H", "EPOCH": "2025-12-24T01:48:39.126240", "MEAN_MOTION": 15.52546085, "ECCENTRICITY": 0.0003392, "INCLINATION": 70.0004, "RA_OF_ASC_NODE": 167.3498, "ARG_OF_PERICENTER": 275.2007, "MEAN_ANOMALY": 84.8793, "EPHEMERIS_TYPE": 0, "CLASSIFICATION_TYPE": "U", "NORAD_CAT_ID": 66828, "ELEMENT_SET_NO": 999, "REV_AT_EPOCH": 469, "BSTAR": 0.0014108, "MEAN_MOTION_DOT": 0.00087676, "MEAN_MOTION_DDOT": 0}, "tle": {"line1": "1 66828U 25280H   25358.07545285  .00087676  00000+0  14108-2 0  9995", "line2": "2 66828  70.0004 167.3498 0003392 275.2007  84.8793 15.52546085  4690"}}, "geometry": {"type": "Point", "coordinates": [-168.16870270471847, 49.65395771233918]}}]}